[{"OBJECT_NAME":"STARLINK-4356","OBJECT_ID":"2022-084AM","EPOCH":"2026-03-09T17:38:05.654688","MEAN_MOTION":15.01251188,"ECCENTRICITY":0.00029592,"INCLINATION":97.6038,"RA_OF_ASC_NODE":130.2446,"ARG_OF_PERICENTER":155.5459,"MEAN_ANOMALY":204.5906,"EPHEMERIS_TYPE":0,"CLASSIFICATION_TYPE":"U","NORAD_CAT_ID":53224,"ELEMENT_SET_NO":999,"REV_AT_EPOCH":19932,"BSTAR":0.00012556272,"MEAN_MOTION_DOT":1.554e-5,"MEAN_MOTION_DDOT":0},{"OBJECT_NAME":"COSMOS 397 DEB","OBJECT_ID":"1971-015L","EPOCH":"2026-03-09T22:11:19.295232","MEAN_MOTION":13.48158936,"ECCENTRICITY":0.07121473,"INCLINATION":65.7094,"RA_OF_ASC_NODE":322.2428,"ARG_OF_PERICENTER":175.4627,"MEAN_ANOMALY":185.3369,"EPHEMERIS_TYPE":0,"CLASSIFICATION_TYPE":"U","NORAD_CAT_ID":5017,"ELEMENT_SET_NO":999,"REV_AT_EPOCH":62618,"BSTAR":0.00068402062,"MEAN_MOTION_DOT":2.026e-5,"MEAN_MOTION_DDOT":0}]
